NORAD_CAT_ID,OBJECT_NAME,OBJECT_TYPE,EPOCH,MEAN_MOTION,ECCENTRICITY,INCLINATION,RA_OF_ASC_NODE,ARG_OF_PERICENTER,MEAN_ANOMALY,BSTAR,MEAN_MOTION_DOT,MEAN_MOTION_DDOT,TLE_LINE0,TLE_LINE1,TLE_LINE2,SEMIMAJOR_AXIS,PERIOD,APOGEE,PERIGEE,DECAYED
52562.0,STARLINK-3957,PAYLOAD,2023-06-28 02:54:40,15.08838083,0.0001078,53.2155,223.508,89.9643,270.1473,0.00013069,1.793e-05,0.0,0 STARLINK-3957,1 52562U 22051AF  23179.12130318  .00001793  00000-0  13069-3 0  9993,2 52562  53.2155 223.5080 0001078  89.9643 270.1473 15.08838083 62868,6917.886,95.438,540.497,539.006,0.0
52562.0,STARLINK-3957,PAYLOAD,2023-06-29 09:06:59,15.08843668,0.000104,53.2158,217.8576,89.9053,270.2058,0.0001046,1.377e-05,0.0,0 STARLINK-3957,1 52562U 22051AF  23180.37985965  .00001377  00000-0  10460-3 0  9998,2 52562  53.2158 217.8576 0001040  89.9053 270.2058 15.08843668 63058,6917.869,95.437,540.454,539.015,0.0
52562.0,STARLINK-3957,PAYLOAD,2023-06-30 12:08:32,15.0884688,0.0001078,53.216,212.8027,83.3705,276.741,0.00010952,1.456e-05,0.0,0 STARLINK-3957,1 52562U 22051AF  23181.50593518  .00001456  00000-0  10952-3 0  9997,2 52562  53.2160 212.8027 0001078  83.3705 276.7410 15.08846880 63221,6917.859,95.437,540.47,538.979,0.0
52562.0,STARLINK-3957,PAYLOAD,2023-07-01 08:48:34,15.08832224,0.0001132,53.2162,208.9374,83.4813,276.6308,-4.0219e-05,-9.28e-06,0.0,0 STARLINK-3957,1 52562U 22051AF  23182.36706870 -.00000928  00000-0 -40219-4 0  9994,2 52562  53.2162 208.9374 0001132  83.4813 276.6308 15.08832224 63352,6917.904,95.438,540.552,538.986,0.0
52562.0,STARLINK-3957,PAYLOAD,2023-07-02 10:14:44,15.08836942,0.0001058,53.2161,204.1797,85.941,274.1703,-3.1769e-06,-3.38e-06,0.0,0 STARLINK-3957,1 52562U 22051AF  23183.42690731 -.00000338  00000-0 -31769-5 0  9996,2 52562  53.2161 204.1797 0001058  85.9410 274.1703 15.08836942 63516,6917.89,95.438,540.487,539.023,0.0
52562.0,STARLINK-3957,PAYLOAD,2023-07-03 13:16:18,15.08837781,0.0001025,53.216,199.1244,83.7631,276.3478,0.0001121,1.497e-05,0.0,0 STARLINK-3957,1 52562U 22051AF  23184.55298759  .00001497  00000-0  11210-3 0  9997,2 52562  53.2160 199.1244 0001025  83.7631 276.3478 15.08837781 63683,6917.887,95.438,540.461,539.043,0.0
52562.0,STARLINK-3957,PAYLOAD,2023-07-05 00:14:47,15.08842383,0.0001031,53.2158,192.5826,84.8148,275.2962,6.1866e-05,6.97e-06,0.0,0 STARLINK-3957,1 52562U 22051AF  23186.01026704  .00000697  00000-0  61866-4 0  9993,2 52562  53.2158 192.5826 0001031  84.8148 275.2962 15.08842383 63900,6917.873,95.437,540.451,539.025,0.0
52562.0,STARLINK-3957,PAYLOAD,2023-07-06 06:27:06,15.08840531,0.000107,53.216,186.9329,82.985,277.1264,1.6874e-05,-1.9e-07,0.0,0 STARLINK-3957,1 52562U 22051AF  23187.26882882 -.00000019  00000-0  16874-4 0  9996,2 52562  53.2160 186.9329 0001070  82.9850 277.1264 15.08840531 64090,6917.879,95.438,540.484,539.004,0.0
52562.0,STARLINK-3957,PAYLOAD,2023-07-07 09:28:39,15.08846303,0.0001103,53.2158,181.8775,82.5224,277.5894,9.5376e-05,1.231e-05,0.0,0 STARLINK-3957,1 52562U 22051AF  23188.39490212  .00001231  00000-0  95376-4 0  9993,2 52562  53.2158 181.8775 0001103  82.5224 277.5894 15.08846303 64269,6917.861,95.437,540.489,538.963,0.0
52562.0,STARLINK-3957,PAYLOAD,2023-07-08 09:19:27,15.08837001,0.0001153,53.2161,177.4163,85.0739,275.0385,3.9574e-05,3.42e-06,0.0,0 STARLINK-3957,1 52562U 22051AF  23189.38851040  .00000342  00000-0  39574-4 0  9993,2 52562  53.2161 177.4163 0001153  85.0739 275.0385 15.08837001 64419,6917.89,95.438,540.552,538.957,0.0
52562.0,STARLINK-3957,PAYLOAD,2023-07-09 10:45:37,15.08837137,0.0001216,53.2167,172.6587,84.3689,275.7442,-7.2481e-06,-4.03e-06,0.0,0 STARLINK-3957,1 52562U 22051AF  23190.44835343 -.00000403  00000-0 -72481-5 0  9995,2 52562  53.2167 172.6587 0001216  84.3689 275.7442 15.08837137 64576,6917.889,95.438,540.595,538.913,0.0
52562.0,STARLINK-3957,PAYLOAD,2023-07-11 07:16:25,15.08838739,0.0001176,53.2165,164.3325,87.6965,272.4162,7.2528e-05,8.67e-06,0.0,0 STARLINK-3957,1 52562U 22051AF  23192.30307422  .00000867  00000-0  72528-4 0  9997,2 52562  53.2165 164.3325 0001176  87.6965 272.4162 15.08838739 64853,6917.884,95.438,540.563,538.936,0.0
52562.0,STARLINK-3957,PAYLOAD,2023-07-12 10:17:58,15.08843965,0.0001155,53.2164,159.2766,89.7333,270.3791,4.6099e-05,4.46e-06,0.0,0 STARLINK-3957,1 52562U 22051AF  23193.42915219  .00000446  00000-0  46099-4 0  9997,2 52562  53.2164 159.2766 0001155  89.7333 270.3791 15.08843965 65025,6917.868,95.437,540.532,538.934,0.0
52562.0,STARLINK-3957,PAYLOAD,2023-07-13 14:54:55,15.08840478,0.0001266,53.217,153.924,89.4515,270.6622,2.4513e-05,1.02e-06,0.0,0 STARLINK-3957,1 52562U 22051AF  23194.62147702  .00000102  00000-0  24513-4 0  9990,2 52562  53.2170 153.9240 0001266  89.4515 270.6622 15.08840478 65204,6917.879,95.438,540.62,538.868,0.0
52562.0,STARLINK-3957,PAYLOAD,2023-07-14 02:02:36,15.08874208,0.0001297,53.2165,151.8434,78.615,281.4988,-0.00040528,-6.738e-05,0.0,0 STARLINK-3957,1 52562U 22051AF  23195.08514398 -.00006738  00000-0 -40528-3 0  9996,2 52562  53.2165 151.8434 0001297  78.6150 281.4988 15.08874208 65279,6917.776,95.435,540.538,538.744,0.0
52562.0,STARLINK-3957,PAYLOAD,2023-07-14 06:48:46,15.08840755,0.000129,53.2166,150.9501,92.65,267.464,0.00015702,2.212e-05,0.0,0 STARLINK-3957,1 52562U 22051AF  23195.28387268  .00002212  00000-0  15702-3 0  9999,2 52562  53.2166 150.9501 0001290  92.6500 267.4640 15.08840755 65306,6917.878,95.438,540.635,538.851,0.0
52562.0,STARLINK-3957,PAYLOAD,2023-07-16 03:19:35,15.08832185,0.0001247,53.2174,142.6281,86.367,273.7465,4.8442e-05,4.83e-06,0.0,0 STARLINK-3957,1 52562U 22051AF  23197.13860357  .00000483  00000-0  48442-4 0  9996,2 52562  53.2174 142.6281 0001247  86.3670 273.7465 15.08832185 65581,6917.904,95.438,540.632,538.907,0.0
52562.0,STARLINK-3957,PAYLOAD,2023-07-16 22:24:12,15.08861082,0.000152,53.217,139.0586,106.6708,253.4451,-0.00031602,-5.317e-05,0.0,0 STARLINK-3957,1 52562U 22051AF  23197.93348019 -.00005317  00000-0 -31602-3 0  9992,2 52562  53.2170 139.0586 0001520 106.6708 253.4451 15.08861082 65709,6917.816,95.436,540.732,538.629,0.0
52562.0,STARLINK-3957,PAYLOAD,2023-07-17 23:50:22,15.08839021,0.0001166,53.2181,134.3018,84.09,276.0225,0.00010099,1.32e-05,0.0,0 STARLINK-3957,1 52562U 22051AF  23198.99332160  .00001320  00000-0  10099-3 0  9994,2 52562  53.2181 134.3018 0001166  84.0900 276.0225 15.08839021 65863,6917.883,95.438,540.555,538.942,0.0
52562.0,STARLINK-3957,PAYLOAD,2023-07-18 06:11:54,15.08849639,0.0001274,53.2178,133.1133,93.1638,266.95,0.00019756,2.858e-05,0.0,0 STARLINK-3957,1 52562U 22051AF  23199.25827213  .00002858  00000-0  19756-3 0  9998,2 52562  53.2178 133.1133 0001274  93.1638 266.9500 15.08849639 65908,6917.851,95.437,540.597,538.835,0.0
52562.0,STARLINK-3957,PAYLOAD,2023-07-19 02:51:56,15.08836839,0.0001285,53.2174,129.2447,109.9852,250.1278,3.1681e-05,2.16e-06,0.0,0 STARLINK-3957,1 52562U 22051AF  23200.11940513  .00000216  00000-0  31681-4 0  9993,2 52562  53.2174 129.2447 0001285 109.9852 250.1278 15.08836839 66034,6917.89,95.438,540.644,538.866,0.0
52562.0,STARLINK-3957,PAYLOAD,2023-07-20 18:36:35,15.08834315,0.000132,53.2168,121.81,95.5581,264.5561,1.8155e-05,1e-08,0.0,0 STARLINK-3957,1 52562U 22051AF  23201.77540899  .00000001  00000-0  18155-4 0  9992,2 52562  53.2168 121.8100 0001320  95.5581 264.5561 15.08834315 66288,6917.898,95.438,540.676,538.85,0.0
52562.0,STARLINK-3957,PAYLOAD,2023-07-21 04:08:53,15.08840525,0.0001339,53.217,120.0277,93.6846,266.4299,0.00011111,1.481e-05,0.0,0 STARLINK-3957,1 52562U 22051AF  23202.17284310  .00001481  00000-0  11111-3 0  9997,2 52562  53.2170 120.0277 0001339  93.6846 266.4299 15.08840525 66346,6917.879,95.438,540.67,538.817,0.0
52562.0,STARLINK-3957,PAYLOAD,2023-07-24 03:41:16,15.08825015,0.0002003,53.2199,106.6457,66.7226,293.3977,2.916e-05,1.76e-06,0.0,0 STARLINK-3957,1 52562U 22051AF  23205.15365936  .00000176  00000-0  29160-4 0  9996,2 52562  53.2199 106.6457 0002003  66.7226 293.3977 15.08825015 66720,6917.926,95.439,541.177,538.406,0.0
52562.0,STARLINK-3957,PAYLOAD,2023-07-25 01:56:39,15.08842617,0.0001298,53.2178,102.4832,89.8003,270.3138,0.0001245,1.694e-05,0.0,0 STARLINK-3957,1 52562U 22051AF  23206.08100873  .00001694  00000-0  12450-3 0  9995,2 52562  53.2178 102.4832 0001298  89.8003 270.3138 15.08842617 66868,6917.872,95.437,540.635,538.839,0.0
52562.0,STARLINK-3957,PAYLOAD,2023-07-26 03:22:49,15.08842883,0.0001413,53.2189,97.7217,90.7317,269.3837,8.8829e-05,1.126e-05,0.0,0 STARLINK-3957,1 52562U 22051AF  23207.14085336  .00001126  00000-0  88829-4 0  9993,2 52562  53.2189  97.7217 0001413  90.7317 269.3837 15.08842883 67029,6917.872,95.437,540.714,538.759,0.0
52562.0,STARLINK-3957,PAYLOAD,2023-07-27 01:38:11,15.08888056,0.0001118,53.2181,93.5589,82.6905,277.4215,-0.00046319,-7.662e-05,0.0,0 STARLINK-3957,1 52562U 22051AF  23208.06819384 -.00007662  00000-0 -46319-3 0  9993,2 52562  53.2181  93.5589 0001118  82.6905 277.4215 15.08888056 67237,6917.734,95.435,540.372,538.825,0.0
52562.0,STARLINK-3957,PAYLOAD,2023-07-27 09:35:10,15.08832963,0.0001862,53.219,92.0748,79.0633,281.0569,-5.5909e-05,-1.178e-05,0.0,0 STARLINK-3957,1 52562U 22051AF  23208.39942269 -.00001178  00000-0 -55909-4 0  9990,2 52562  53.2190  92.0748 0001862  79.0633 281.0569 15.08832963 67286,6917.902,95.438,541.055,538.479,0.0
52562.0,STARLINK-3957,PAYLOAD,2023-07-27 22:18:15,15.08834713,0.0001457,53.2174,89.6987,86.1768,273.939,-4.1595e-05,-9.5e-06,0.0,0 STARLINK-3957,1 52562U 22051AF  23208.92934324 -.00000950  00000-0 -41595-4 0  9995,2 52562  53.2174  89.6987 0001457  86.1768 273.9390 15.08834713 67291,6917.897,95.438,540.769,538.754,0.0
52562.0,STARLINK-3957,PAYLOAD,2023-07-28 01:29:01,15.08832947,9.9e-05,53.2169,89.0995,93.8258,266.2847,-4.8682e-05,-1.062e-05,0.0,0 STARLINK-3957,1 52562U 22051AF  23209.06182471 -.00001062  00000-0 -48682-4 0  9998,2 52562  53.2169  89.0995 0000990  93.8258 266.2847 15.08832947 67310,6917.902,95.438,540.452,539.082,0.0
